{"type": "FeatureCollection", "features": [ {"type": "Feature", "properties": {"norad_id": 66667, "name": "PELICAN-5", "group": "last-30-days", "lat": -70.29207682797589, "lon": 89.48807080892671, "alt_km": 519.982512854881, "timestamp": "2025-12-22T11:33:19.153888+00:00", "meta": {"OBJECT_NAME": "PELICAN-5", "OBJECT_ID": "2025-276B", "EPOCH": "2025-12-22T02:22:34.325760", "MEAN_MOTION": 15.17600746, "ECCENTRICITY": 0.0002035, "INCLINATION": 97.4415, "RA_OF_ASC_NODE": 67.7117, "ARG_OF_PERICENTER": 215.9708, "MEAN_ANOMALY": 144.1389, "EPHEMERIS_TYPE": 0, "CLASSIFICATION_TYPE": "U", "NORAD_CAT_ID": 66667, "ELEMENT_SET_NO": 999, "REV_AT_EPOCH": 354, "BSTAR": 0.00046376, "MEAN_MOTION_DOT": 9.261e-05, "MEAN_MOTION_DDOT": 0}, "tle": {"line1": "1 66667U 25276B   25356.09900840  .00009261  00000+0  46376-3 0  9990", "line2": "2 66667  97.4415  67.7117 0002035 215.9708 144.1389 15.17600746  3543"}}, "geometry": {"type": "Point", "coordinates": [89.48807080892671, -70.29207682797589]}}, {"type": "Feature", "properties": {"norad_id": 66668, "name": "TRANSPORTER-15 C", "group": "last-30-days", "lat": -26.584190777069516, "lon": -115.7309735703931, "alt_km": 525.5378335779124, "timestamp": "2025-12-22T11:33:19.153898+00:00", "meta": {"OBJECT_NAME": "TRANSPORTER-15 C", "OBJECT_ID": "2025-276C", "EPOCH": "2025-12-22T04:18:27.336384", "MEAN_MOTION": 15.16031741, "ECCENTRICITY": 0.0014577, "INCLINATION": 97.4277, "RA_OF_ASC_NODE": 67.7168, "ARG_OF_PERICENTER": 301.3849, "MEAN_ANOMALY": 58.5957, "EPHEMERIS_TYPE": 0, "CLASSIFICATION_TYPE": "U", "NORAD_CAT_ID": 66668, "ELEMENT_SET_NO": 999, "REV_AT_EPOCH": 355, "BSTAR": -0.035248, "MEAN_MOTION_DOT": -0.00632072, "MEAN_MOTION_DDOT": 0}, "tle": {"line1": "1 66668U 25276C   25356.17948306 -.00632072  00000+0 -35248-1 0  9997", "line2": "2 66668  97.4277  67.7168 0014577 301.3849  58.5957 15.16031741  3558"}}, "geometry": {"type": "Point", "coordinates": [-115.7309735703931, -26.584190777069516]}}, {"type": "Feature", "properties": {"norad_id": 66669, "name": "TRANSPORTER-15 D", "group": "last-30-days", "lat": 6.62860071544304, "lon": 67.21889544258282, "alt_km": 503.4209500908082, "timestamp": "2025-12-22T11:33:19.153908+00:00", "meta": {"OBJECT_NAME": "TRANSPORTER-15 D", "OBJECT_ID": "2025-276D", "EPOCH": "2025-12-21T02:39:18.210816", "MEAN_MOTION": 15.34134881, "ECCENTRICITY": 0.00748198, "INCLINATION": 97.4314, "RA_OF_ASC_NODE": 66.7079, "ARG_OF_PERICENTER": 232.3102, "MEAN_ANOMALY": 127.1341, "EPHEMERIS_TYPE": 0, "CLASSIFICATION_TYPE": "U", "NORAD_CAT_ID": 66669, "ELEMENT_SET_NO": 999, "REV_AT_EPOCH": 339, "BSTAR": 0.0027830351, "MEAN_MOTION_DOT": 0.00101698, "MEAN_MOTION_DDOT": 0}, "tle": {"line1": "1 66669U 25276D   25355.11062744  .00101698  00000+0  27830-2 0  9996", "line2": "2 66669  97.4314  66.7079 0074819 232.3102 127.1341 15.34134881  3392"}}, "geometry": {"type": "Point", "coordinates": [67.21889544258282, 6.62860071544304]}}, {"type": "Feature", "properties": {"norad_id": 66670, "name": "TRANSPORTER-15 E", "group": "last-30-days", "lat": -35.79111189181926, "lon": -117.37551674887672, "alt_km": 519.8313469843124, "timestamp": "2025-12-22T11:33:19.153921+00:00", "meta": {"OBJECT_NAME": "TRANSPORTER-15 E", "OBJECT_ID": "2025-276E", "EPOCH": "2025-12-22T04:16:26.035968", "MEAN_MOTION": 15.17085182, "ECCENTRICITY": 0.0002239, "INCLINATION": 97.4305, "RA_OF_ASC_NODE": 67.7263, "ARG_OF_PERICENTER": 186.5116, "MEAN_ANOMALY": 173.6089, "EPHEMERIS_TYPE": 0, "CLASSIFICATION_TYPE": "U", "NORAD_CAT_ID": 66670, "ELEMENT_SET_NO": 999, "REV_AT_EPOCH": 355, "BSTAR": -0.0034477, "MEAN_MOTION_DOT": -0.00067675, "MEAN_MOTION_DDOT": 0}, "tle": {"line1": "1 66670U 25276E   25356.17807912 -.00067675  00000+0 -34477-2 0  9992", "line2": "2 66670  97.4305  67.7263 0002239 186.5116 173.6089 15.17085182  3555"}}, "geometry": {"type": "Point", "coordinates": [-117.37551674887672, -35.79111189181926]}}, {"type": "Feature", "properties": {"norad_id": 66671, "name": "TRANSPORTER-15 F", "group": "last-30-days", "lat": -47.203487178558106, "lon": -120.05355351983387, "alt_km": 518.3174225298617, "timestamp": "2025-12-22T11:33:19.153931+00:00", "meta": {"OBJECT_NAME": "TRANSPORTER-15 F", "OBJECT_ID": "2025-276F", "EPOCH": "2025-12-22T04:13:21.414720", "MEAN_MOTION": 15.17093161, "ECCENTRICITY": 0.0005092, "INCLINATION": 97.4423, "RA_OF_ASC_NODE": 67.7626, "ARG_OF_PERICENTER": 255.0825, "MEAN_ANOMALY": 104.9845, "EPHEMERIS_TYPE": 0, "CLASSIFICATION_TYPE": "U", "NORAD_CAT_ID": 66671, "ELEMENT_SET_NO": 999, "REV_AT_EPOCH": 355, "BSTAR": 0.00073567, "MEAN_MOTION_DOT": 0.0001453, "MEAN_MOTION_DDOT": 0}, "tle": {"line1": "1 66671U 25276F   25356.17594230  .00014530  00000+0  73567-3 0  9993", "line2": "2 66671  97.4423  67.7626 0005092 255.0825 104.9845 15.17093161  3552"}}, "geometry": {"type": "Point", "coordinates": [-120.05355351983387, -47.203487178558106]}}, {"type": "Feature", "properties": {"norad_id": 66672, "name": "TRANSPORTER-15 G", "group": "last-30-days", "lat": -21.994882340216417, "lon": -114.98149620254854, "alt_km": 519.0805457576289, "timestamp": "2025-12-22T11:33:19.153941+00:00", "meta": {"OBJECT_NAME": "TRANSPORTER-15 G", "OBJECT_ID": "2025-276G", "EPOCH": "2025-12-22T04:19:57.762624", "MEAN_MOTION": 15.16625292, "ECCENTRICITY": 0.0005386, "INCLINATION": 97.4398, "RA_OF_ASC_NODE": 67.7489, "ARG_OF_PERICENTER": 253.0779, "MEAN_ANOMALY": 106.9864, "EPHEMERIS_TYPE": 0, "CLASSIFICATION_TYPE": "U", "NORAD_CAT_ID": 66672, "ELEMENT_SET_NO": 999, "REV_AT_EPOCH": 355, "BSTAR": 0.00048718, "MEAN_MOTION_DOT": 9.466e-05, "MEAN_MOTION_DDOT": 0}, "tle": {"line1": "1 66672U 25276G   25356.18052966  .00009466  00000+0  48718-3 0  9992", "line2": "2 66672  97.4398  67.7489 0005386 253.0779 106.9864 15.16625292  3551"}}, "geometry": {"type": "Point", "coordinates": [-114.98149620254854, -21.994882340216417]}}, {"type": "Feature", "properties": {"norad_id": 66673, "name": "TRANSPORTER-15 H", "group": "last-30-days", "lat": -41.87354972980196, "lon": -118.68131069480066, "alt_km": 518.5344583335927, "timestamp": "2025-12-22T11:33:19.153955+00:00", "meta": {"OBJECT_NAME": "TRANSPORTER-15 H", "OBJECT_ID": "2025-276H", "EPOCH": "2025-12-22T04:14:47.061312", "MEAN_MOTION": 15.17106146, "ECCENTRICITY": 0.0005831, "INCLINATION": 97.4367, "RA_OF_ASC_NODE": 67.744, "ARG_OF_PERICENTER": 271.4486, "MEAN_ANOMALY": 88.6079, "EPHEMERIS_TYPE": 0, "CLASSIFICATION_TYPE": "U", "NORAD_CAT_ID": 66673, "ELEMENT_SET_NO": 999, "REV_AT_EPOCH": 355, "BSTAR": 0.00093198, "MEAN_MOTION_DOT": 0.00018444, "MEAN_MOTION_DDOT": 0}, "tle": {"line1": "1 66673U 25276H   25356.17693358  .00018444  00000+0  93198-3 0  9996", "line2": "2 66673  97.4367  67.7440 0005831 271.4486  88.6079 15.17106146  3556"}}, "geometry": {"type": "Point", "coordinates": [-118.68131069480066, -41.87354972980196]}}, {"type": "Feature", "properties": {"norad_id": 66674, "name": "TRANSPORTER-15 J", "group": "last-30-days", "lat": -20.791791991922256, "lon": -114.80567604534637, "alt_km": 531.8190552073092, "timestamp": "2025-12-22T11:33:19.153965+00:00", "meta": {"OBJECT_NAME": "TRANSPORTER-15 J", "OBJECT_ID": "2025-276J", "EPOCH": "2025-12-21T10:53:16.478880", "MEAN_MOTION": 15.15191397, "ECCENTRICITY": 0.00065005, "INCLINATION": 97.4372, "RA_OF_ASC_NODE": 67.0325, "ARG_OF_PERICENTER": 333.1103, "MEAN_ANOMALY": 26.9792, "EPHEMERIS_TYPE": 0, "CLASSIFICATION_TYPE": "U", "NORAD_CAT_ID": 66674, "ELEMENT_SET_NO": 999, "REV_AT_EPOCH": 344, "BSTAR": -0.028180021, "MEAN_MOTION_DOT": -0.00494676, "MEAN_MOTION_DDOT": 0}, "tle": {"line1": "1 66674U 25276J   25355.45366295 -.00494676  00000+0 -28180-1 0  9998", "line2": "2 66674  97.4372  67.0325 0006500 333.1103  26.9792 15.15191397  3449"}}, "geometry": {"type": "Point", "coordinates": [-114.80567604534637, -20.791791991922256]}}, {"type": "Feature", "properties": {"norad_id": 66675, "name": "TRANSPORTER-15 K", "group": "last-30-days", "lat": -41.98724098588086, "lon": -118.70237058046426, "alt_km": 518.7347875185724, "timestamp": "2025-12-22T11:33:19.153975+00:00", "meta": {"OBJECT_NAME": "TRANSPORTER-15 K", "OBJECT_ID": "2025-276K", "EPOCH": "2025-12-22T04:14:43.677888", "MEAN_MOTION": 15.1699558, "ECCENTRICITY": 0.0005091, "INCLINATION": 97.439, "RA_OF_ASC_NODE": 67.752, "ARG_OF_PERICENTER": 259.6753, "MEAN_ANOMALY": 100.3906, "EPHEMERIS_TYPE": 0, "CLASSIFICATION_TYPE": "U", "NORAD_CAT_ID": 66675, "ELEMENT_SET_NO": 999, "REV_AT_EPOCH": 355, "BSTAR": 0.00070406, "MEAN_MOTION_DOT": 0.00013863, "MEAN_MOTION_DDOT": 0}, "tle": {"line1": "1 66675U 25276K   25356.17689442  .00013863  00000+0  70406-3 0  9994", "line2": "2 66675  97.4390  67.7520 0005091 259.6753 100.3906 15.16995580  3554"}}, "geometry": {"type": "Point", "coordinates": [-118.70237058046426, -41.98724098588086]}}, {"type": "Feature", "properties": {"norad_id": 66676, "name": "TRANSPORTER-15 L", "group": "last-30-days", "lat": -33.03517734462066, "lon": -116.82739429679395, "alt_km": 519.4364421565269, "timestamp": "2025-12-22T11:33:19.153985+00:00", "meta": {"OBJECT_NAME": "TRANSPORTER-15 L", "OBJECT_ID": "2025-276L", "EPOCH": "2025-12-22T04:17:03.905088", "MEAN_MOTION": 15.16788462, "ECCENTRICITY": 0.0004799, "INCLINATION": 97.4391, "RA_OF_ASC_NODE": 67.7495, "ARG_OF_PERICENTER": 259.9188, "MEAN_ANOMALY": 100.1504, "EPHEMERIS_TYPE": 0, "CLASSIFICATION_TYPE": "U", "NORAD_CAT_ID": 66676, "ELEMENT_SET_NO": 999, "REV_AT_EPOCH": 355, "BSTAR": 0.00053109, "MEAN_MOTION_DOT": 0.00010374, "MEAN_MOTION_DDOT": 0}, "tle": {"line1": "1 66676U 25276L   25356.17851742  .00010374  00000+0  53109-3 0  9994", "line2": "2 66676  97.4391  67.7495 0004799 259.9188 100.1504 15.16788462  3557"}}, "geometry": {"type": "Point", "coordinates": [-116.82739429679395, -33.03517734462066]}}]}